OBJECT_NAME,OBJECT_ID,EPOCH,MEAN_MOTION,ECCENTRICITY,INCLINATION,RA_OF_ASC_NODE,ARG_OF_PERICENTER,MEAN_ANOMALY,EPHEMERIS_TYPE,CLASSIFICATION_TYPE,NORAD_CAT_ID,ELEMENT_SET_NO,REV_AT_EPOCH,BSTAR,MEAN_MOTION_DOT,MEAN_MOTION_DDOT
SES-1,2010-016A,2026-06-06T02:43:22.873152,1.00271487,.00029373,0.0193,310.4593,126.9028,117.0257,0,U,36516,999,5892,0,-.101E-5,0
ASTRA 3B,2010-021A,2026-06-06T03:46:38.642016,1.00273269,.00044418,1.4422,83.6853,349.9002,261.1366,0,U,36581,999,5875,0,.15E-5,0
COMSATBW-2,2010-021B,2026-06-06T03:16:03.508608,1.00269471,.00028037,0.0161,17.7874,70.0610,228.9429,0,U,36582,999,5884,0,.101E-5,0
BEIDOU-2 G3,2010-024A,2026-06-05T20:44:25.570176,1.00273409,.00085687,4.4888,61.5638,350.1013,233.4251,0,U,36590,999,5865,0,-.124E-5,0
BADR-5,2010-025A,2026-06-06T03:38:38.460192,1.00277472,.00033453,0.0600,118.9903,61.1919,159.5732,0,U,36592,999,5310,0,.167E-5,0
COMS 1,2010-032A,2026-06-01T17:43:38.675712,1.00271905,.00010648,4.7700,75.5552,351.7830,216.9341,0,U,36744,999,5093,0,-.334E-5,0
ARABSAT-5A,2010-032B,2026-06-06T03:38:38.460192,1.00268975,.00054139,0.0683,49.0055,47.4396,243.2901,0,U,36745,999,5853,0,.166E-5,0
ECHOSTAR 15,2010-034A,2026-06-06T03:13:38.698752,1.00271571,.00019289,0.0102,342.3712,90.5776,111.2079,0,U,36792,999,5821,0,.13E-6,0
BEIDOU-2 IGSO-1,2010-036A,2026-06-05T22:47:04.711776,1.00275874,.0059109,54.3006,163.0609,225.0259,315.7023,0,U,36828,999,5798,0,-.57E-6,0
NILESAT 201,2010-037A,2026-06-06T03:10:19.058592,1.00272123,.00044458,0.0089,279.0190,185.4604,190.6631,0,U,36830,999,5826,0,-.45E-6,0
RASCOM-QAF 1R,2010-037B,2026-06-05T18:39:55.669824,1.00272669,.00066385,0.0091,333.5274,97.6053,105.9591,0,U,36831,999,5819,0,.31E-6,0
AEHF-1 (USA 214),2010-039A,2026-06-05T22:12:53.586144,1.00269849,.00042102,8.1906,68.1931,3.5200,185.8018,0,U,36868,999,5354,0,.159E-5,0
XM-5,2010-053A,2026-06-05T23:14:11.133024,1.00271495,.00027092,0.0635,273.1776,279.5350,295.0394,0,U,37185,999,5737,0,-.1E-6,0
BSAT-3B,2010-056B,2026-06-05T19:10:18.932736,1.00274178,.00012377,0.0553,240.0477,298.9038,112.6961,0,U,37207,999,5198,0,-.338E-5,0
BEIDOU-2 G4,2010-057A,2026-06-06T03:57:58.192704,1.00272252,.00048133,3.6194,69.0119,202.8237,202.2595,0,U,37210,999,5718,0,-.99E-6,0
SKYTERRA 1,2010-061A,2026-06-06T02:43:22.873152,1.00271152,.0002896,5.1011,50.8621,18.7671,124.4318,0,U,37218,999,5708,0,-.106E-5,0
HYLAS 1,2010-065A,2026-06-05T17:50:01.504608,1.00271871,.00012183,5.6142,73.1582,320.4426,141.8763,0,U,37237,999,677,0,.101E-5,0
INTELSAT 17 (IS-17),2010-065B,2026-06-06T03:31:09.562080,1.00272091,.00024313,0.0054,307.5478,133.4235,292.3780,0,U,37238,999,5313,0,.11E-6,0
BEIDOU-2 IGSO-2,2010-068A,2026-06-02T17:12:31.818816,1.00288733,.0055435,47.5760,272.0122,212.8539,131.7633,0,U,37256,999,5664,0,-.206E-5,0
EUTELSAT KA-SAT 9A,2010-069A,2026-06-05T22:06:36.526176,1.00273430,.00041657,0.0613,11.8413,118.7604,104.3894,0,U,37258,999,4389,0,.75E-6,0
HISPASAT 30W-5,2010-070A,2026-06-06T01:21:06.261408,1.00271168,.00052164,0.0592,108.5676,348.7349,147.4748,0,U,37264,999,5307,0,-.203E-5,0
KOREASAT 6,2010-070B,2026-06-06T02:15:09.416736,1.00271993,.00023716,0.0230,64.3414,17.0116,6.8466,0,U,37265,999,5666,0,-.98E-6,0
BEIDOU-2 IGSO-3,2011-013A,2026-06-04T15:13:36.073056,1.00271497,.00344466,62.3902,40.2715,185.4993,3.7397,0,U,37384,999,5553,0,-.179E-5,0
INTELSAT 28 (IS-28),2011-016A,2026-06-06T01:20:36.309120,1.00269622,.00040019,1.7768,82.7598,352.3722,167.8136,0,U,37392,999,5317,0,-.212E-5,0
YAHSAT 1A,2011-016B,2026-06-05T05:12:43.523424,1.00269390,.00032083,0.0153,335.7562,103.7141,304.8600,0,U,37393,999,4228,0,0,0
SBIRS GEO-1 (USA 230),2011-019A,2026-06-05T18:53:45.741408,1.00272336,.0002136,4.5121,53.1320,11.3047,165.0130,0,U,37481,999,5528,0,.112E-5,0
TELSTAR 14R,2011-021A,2026-06-06T02:54:23.305248,1.00271481,.00025313,0.0103,27.3137,38.9322,168.9007,0,U,37602,999,5572,0,-.267E-5,0
GSAT-8,2011-022A,2026-06-06T03:28:02.360928,1.00271530,.00021686,2.1019,81.9590,216.4497,63.2483,0,U,37605,999,5310,0,.97E-6,0
ST-2,2011-022B,2026-06-06T03:37:23.964384,1.00271632,.00019103,0.0145,26.5298,62.9812,307.4402,0,U,37606,999,5516,0,-.199E-5,0
ZHONGXING-10,2011-026A,2026-06-06T03:36:46.522944,1.00271553,.00037077,1.0180,84.3297,355.1225,314.8596,0,U,37677,999,5488,0,-.176E-5,0
SES-3,2011-035A,2026-06-06T02:43:00.409152,1.00271346,.00028027,1.2975,83.2096,346.9141,122.1640,0,U,37748,999,5448,0,-.89E-6,0
KAZSAT-2,2011-035B,2026-06-06T03:37:01.498656,1.00270342,.00012554,0.0364,247.7184,250.4032,257.2282,0,U,37749,999,5328,0,-.185E-5,0
