SES-1                   
1 36516U 10016A   26157.11345918 -.00000101  00000+0  00000+0 0  9993
2 36516   0.0193 310.4593 0002937 126.9028 117.0257  1.00271487 58927
ASTRA 3B                
1 36581U 10021A   26157.15739169  .00000150  00000+0  00000+0 0  9993
2 36581   1.4422  83.6853 0004441 349.9002 261.1366  1.00273269 58751
COMSATBW-2              
1 36582U 10021B   26157.13615172  .00000101  00000+0  00000+0 0  9995
2 36582   0.0161  17.7874 0002803  70.0610 228.9429  1.00269471 58846
BEIDOU-2 G3             
1 36590U 10024A   26156.86418484 -.00000124  00000+0  00000+0 0  9999
2 36590   4.4888  61.5638 0008568 350.1013 233.4251  1.00273409 58656
BADR-5                  
1 36592U 10025A   26157.15183403  .00000167  00000+0  00000+0 0  9991
2 36592   0.0600 118.9903 0003345  61.1919 159.5732  1.00277472 53107
COMS 1                  
1 36744U 10032A   26152.73864208 -.00000334  00000+0  00000+0 0  9993
2 36744   4.7700  75.5552 0001064 351.7830 216.9341  1.00271905 50939
ARABSAT-5A              
1 36745U 10032B   26157.15183403  .00000166  00000+0  00000+0 0  9998
2 36745   0.0683  49.0055 0005413  47.4396 243.2901  1.00268975 58533
ECHOSTAR 15             
1 36792U 10034A   26157.13447568  .00000013  00000+0  00000+0 0  9996
2 36792   0.0102 342.3712 0001928  90.5776 111.2079  1.00271571 58219
BEIDOU-2 IGSO-1         
1 36828U 10036A   26156.94936009 -.00000057  00000+0  00000+0 0  9998
2 36828  54.3006 163.0609 0059109 225.0259 315.7023  1.00275874 57985
NILESAT 201             
1 36830U 10037A   26157.13216503 -.00000045  00000+0  00000+0 0  9991
2 36830   0.0089 279.0190 0004445 185.4604 190.6631  1.00272123 58267
RASCOM-QAF 1R           
1 36831U 10037B   26156.77772766  .00000031  00000+0  00000+0 0  9993
2 36831   0.0091 333.5274 0006638  97.6053 105.9591  1.00272669 58199
AEHF-1 (USA 214)        
1 36868U 10039A   26156.92562021  .00000159  00000+0  00000+0 0  9994
2 36868   8.1906  68.1931 0004210   3.5200 185.8018  1.00269849 53549
XM-5                    
1 37185U 10053A   26156.96818441 -.00000010  00000+0  00000+0 0  9994
2 37185   0.0635 273.1776 0002709 279.5350 295.0394  1.00271495 57375
BSAT-3B                 
1 37207U 10056B   26156.79883024 -.00000338  00000+0  00000+0 0  9995
2 37207   0.0553 240.0477 0001237 298.9038 112.6961  1.00274178 51989
BEIDOU-2 G4             
1 37210U 10057A   26157.16525686 -.00000099  00000+0  00000+0 0  9993
2 37210   3.6194  69.0119 0004813 202.8237 202.2595  1.00272252 57181
SKYTERRA 1              
1 37218U 10061A   26157.11345918 -.00000106  00000+0  00000+0 0  9998
2 37218   5.1011  50.8621 0002896  18.7671 124.4318  1.00271152 57080
HYLAS 1                 
1 37237U 10065A   26156.74307297  .00000101  00000+0  00000+0 0  9993
2 37237   5.6142  73.1582 0001218 320.4426 141.8763  1.00271871  6778
INTELSAT 17 (IS-17)     
1 37238U 10065B   26157.14663845  .00000011  00000+0  00000+0 0  9993
2 37238   0.0054 307.5478 0002431 133.4235 292.3780  1.00272091 53134
BEIDOU-2 IGSO-2         
1 37256U 10068A   26153.71703494 -.00000206  00000+0  00000+0 0  9997
2 37256  47.5760 272.0122 0055435 212.8539 131.7633  1.00288733 56649
EUTELSAT KA-SAT 9A      
1 37258U 10069A   26156.92125609  .00000075  00000+0  00000+0 0  9995
2 37258   0.0613  11.8413 0004165 118.7604 104.3894  1.00273430 43891
HISPASAT 30W-5          
1 37264U 10070A   26157.05632247 -.00000203  00000+0  00000+0 0  9994
2 37264   0.0592 108.5676 0005216 348.7349 147.4748  1.00271168 53071
KOREASAT 6              
1 37265U 10070B   26157.09385899 -.00000098  00000+0  00000+0 0  9999
2 37265   0.0230  64.3414 0002371  17.0116   6.8466  1.00271993 56666
BEIDOU-2 IGSO-3         
1 37384U 11013A   26155.63444529 -.00000179  00000+0  00000+0 0  9993
2 37384  62.3902  40.2715 0034446 185.4993   3.7397  1.00271497 55536
INTELSAT 28 (IS-28)     
1 37392U 11016A   26157.05597580 -.00000212  00000+0  00000+0 0  9997
2 37392   1.7768  82.7598 0004001 352.3722 167.8136  1.00269622 53179
YAHSAT 1A               
1 37393U 11016B   26156.21717041  .00000000  00000+0  00000+0 0  9995
2 37393   0.0153 335.7562 0003208 103.7141 304.8600  1.00269390 42284
SBIRS GEO-1 (USA 230)   
1 37481U 11019A   26156.78733497  .00000112  00000+0  00000+0 0  9995
2 37481   4.5121  53.1320 0002136  11.3047 165.0130  1.00272336 55280
TELSTAR 14R             
1 37602U 11021A   26157.12110307 -.00000267  00000+0  00000+0 0  9993
2 37602   0.0103  27.3137 0002531  38.9322 168.9007  1.00271481 55729
GSAT-8                  
1 37605U 11022A   26157.14447177  .00000097  00000+0  00000+0 0  9997
2 37605   2.1019  81.9590 0002168 216.4497  63.2483  1.00271530 53102
ST-2                    
1 37606U 11022B   26157.15097181 -.00000199  00000+0  00000+0 0  9999
2 37606   0.0145  26.5298 0001910  62.9812 307.4402  1.00271632 55164
ZHONGXING-10            
1 37677U 11026A   26157.15053846 -.00000176  00000+0  00000+0 0  9996
2 37677   1.0180  84.3297 0003707 355.1225 314.8596  1.00271553 54880
SES-3                   
1 37748U 11035A   26157.11319918 -.00000089  00000+0  00000+0 0  9999
2 37748   1.2975  83.2096 0002802 346.9141 122.1640  1.00271346 54484
KAZSAT-2                
1 37749U 11035B   26157.15071179 -.00000185  00000+0  00000+0 0  9995
2 37749   0.0364 247.7184 0001255 250.4032 257.2282  1.00270342 53282
